
# Worst residual: 15.42 km
# MJD 60360.000000 (2024 Feb 20  0:00)
2007-004G = NORAD 30799 = Themis booster
1 30799U 07004G   24051.49919926  .00000000  00000-0  00000-0 0 22568
2 30799 003.4427 189.2613 8625100 046.2012 063.9565 00.79942185    06

# Worst residual: 13.29 km
# MJD 60361.000000 (2024 Feb 21  0:00)
2007-004G = NORAD 30799 = Themis booster
1 30799U 07004G   24052.49919926  .00000000  00000-0  00000-0 0 22569
2 30799 003.4309 188.9228 8625318 046.6539 351.6486 00.79953552    01

# Worst residual: 15.99 km
# MJD 60362.000000 (2024 Feb 22  0:00)
2007-004G = NORAD 30799 = Themis booster
1 30799U 07004G   24053.49919926  .00000000  00000-0  00000-0 0 22560
2 30799 003.4206 188.5910 8626362 047.1020 279.3273 00.79927519    06

# Worst residual: 10.14 km
# MJD 60363.000000 (2024 Feb 23  0:00)
2007-004G = NORAD 30799 = Themis booster
1 30799U 07004G   24054.49919926  .00000000  00000-0  00000-0 0 22561
2 30799 003.4084 188.2169 8629407 047.5943 207.0581 00.79949681    08

# Worst residual: 21.47 km
# MJD 60364.000000 (2024 Feb 24  0:00)
2007-004G = NORAD 30799 = Themis booster
1 30799U 07004G   24055.49919926  .00000000  00000-0  00000-0 0 22562
2 30799 003.3950 187.8364 8627476 048.0917 134.8208 00.79947319    01

# Worst residual: 15.92 km
# MJD 60365.000000 (2024 Feb 25  0:00)
2007-004G = NORAD 30799 = Themis booster
1 30799U 07004G   24056.49919926  .00000000  00000-0  00000-0 0 22563
2 30799 003.3836 187.4951 8627985 048.5530 062.5974 00.79961812    04

# Worst residual: 13.42 km
# MJD 60366.000000 (2024 Feb 26  0:00)
2007-004G = NORAD 30799 = Themis booster
1 30799U 07004G   24057.49919926  .00000000  00000-0  00000-0 0 22564
2 30799 003.3698 187.0915 8628188 049.0782 350.3335 00.79971221    01

# Worst residual: 15.19 km
# MJD 60367.000000 (2024 Feb 27  0:00)
2007-004G = NORAD 30799 = Themis booster
1 30799U 07004G   24058.49919926  .00000000  00000-0  00000-0 0 22565
2 30799 003.3578 186.7211 8628802 049.5671 278.0879 00.79945957    04

# Worst residual: 9.89 km
# MJD 60368.000000 (2024 Feb 28  0:00)
2007-004G = NORAD 30799 = Themis booster
1 30799U 07004G   24059.49919926  .00000000  00000-0  00000-0 0 22566
2 30799 003.3457 186.3316 8631409 050.0779 205.8518 00.79950971    05

# Worst residual: 18.95 km
# MJD 60369.000000 (2024 Feb 29  0:00)
2007-004G = NORAD 30799 = Themis booster
1 30799U 07004G   24060.49919926  .00000000  00000-0  00000-0 0 22568
2 30799 003.3356 185.9955 8629785 050.5288 133.6022 00.79935037    05

# Worst residual: 15.42 km
# MJD 60370.000000 (2024 Mar  1  0:00)
2007-004G = NORAD 30799 = Themis booster
1 30799U 07004G   24061.49919926  .00000000  00000-0  00000-0 0 22569
2 30799 003.3269 185.6702 8629626 050.9723 061.3308 00.79941749    08

# Worst residual: 13.70 km
# MJD 60371.000000 (2024 Mar  2  0:00)
2007-004G = NORAD 30799 = Themis booster
1 30799U 07004G   24062.49919926  .00000000  00000-0  00000-0 0 22560
2 30799 003.3208 185.4011 8629832 051.3582 349.0308 00.79951963    04

# Worst residual: 15.27 km
# MJD 60372.000000 (2024 Mar  3  0:00)
2007-004G = NORAD 30799 = Themis booster
1 30799U 07004G   24063.49919926  .00000000  00000-0  00000-0 0 22561
2 30799 003.3149 185.1254 8630665 051.7506 276.7452 00.79933831    00

# Worst residual: 10.07 km
# MJD 60373.000000 (2024 Mar  4  0:00)
2007-004G = NORAD 30799 = Themis booster
1 30799U 07004G   24064.49919926  .00000000  00000-0  00000-0 0 22562
2 30799 003.3038 184.7304 8633630 052.2636 204.4670 00.79939597    08

# Worst residual: 21.45 km
# MJD 60374.000000 (2024 Mar  5  0:00)
2007-004G = NORAD 30799 = Themis booster
1 30799U 07004G   24065.49919926  .00000000  00000-0  00000-0 0 22563
2 30799 003.2933 184.3892 8631915 052.7232 132.1702 00.79923729    03

# Worst residual: 14.90 km
# MJD 60375.000000 (2024 Mar  6  0:00)
2007-004G = NORAD 30799 = Themis booster
1 30799U 07004G   24066.49919926  .00000000  00000-0  00000-0 0 22564
2 30799 003.2824 183.9840 8631902 053.2504 059.8674 00.79959424    08

# Worst residual: 15.82 km
# MJD 60376.000000 (2024 Mar  7  0:00)
2007-004G = NORAD 30799 = Themis booster
1 30799U 07004G   24067.49919926  .00000000  00000-0  00000-0 0 22565
2 30799 003.2665 183.4618 8631623 053.8950 347.5755 00.79969895    00

# Worst residual: 16.98 km
# MJD 60377.000000 (2024 Mar  8  0:00)
2007-004G = NORAD 30799 = Themis booster
1 30799U 07004G   24068.49919926  .00000000  00000-0  00000-0 0 22566
2 30799 003.2510 182.9479 8631960 054.5293 275.2930 00.79937024    01

# Worst residual: 9.77 km
# MJD 60378.000000 (2024 Mar  9  0:00)
2007-004G = NORAD 30799 = Themis booster
1 30799U 07004G   24069.49919926  .00000000  00000-0  00000-0 0 22567
2 30799 003.2385 182.4543 8634582 055.1403 203.0423 00.79951943    03

# Worst residual: 23.32 km
# MJD 60379.000000 (2024 Mar 10  0:00)
2007-004G = NORAD 30799 = Themis booster
1 30799U 07004G   24070.49919926  .00000000  00000-0  00000-0 0 22569
2 30799 003.2252 181.9488 8632593 055.7588 130.7812 00.79933012    03

# Worst residual: 17.85 km
# MJD 60380.000000 (2024 Mar 11  0:00)
2007-004G = NORAD 30799 = Themis booster
1 30799U 07004G   24071.49919926  .00000000  00000-0  00000-0 0 22560
2 30799 003.2157 181.5090 8633536 056.3164 058.5183 00.79943114    09

# Worst residual: 13.38 km
# MJD 60381.000000 (2024 Mar 12  0:00)
2007-004G = NORAD 30799 = Themis booster
1 30799U 07004G   24072.49919926  .00000000  00000-0  00000-0 0 22561
2 30799 003.2011 180.9929 8635304 056.9529 346.2013 00.79955565    00

# Worst residual: 13.33 km
# MJD 60382.000000 (2024 Mar 13  0:00)
2007-004G = NORAD 30799 = Themis booster
1 30799U 07004G   24073.49919926  .00000000  00000-0  00000-0 0 22562
2 30799 003.1798 180.3010 8637734 057.7662 273.8595 00.79927051    01

# Worst residual: 8.43 km
# MJD 60383.000000 (2024 Mar 14  0:00)
2007-004G = NORAD 30799 = Themis booster
1 30799U 07004G   24074.49919926  .00000000  00000-0  00000-0 0 22563
2 30799 003.1561 179.5403 8640543 058.6534 201.5521 00.79934392    08

# Worst residual: 17.66 km
# MJD 60384.000000 (2024 Mar 15  0:00)
2007-004G = NORAD 30799 = Themis booster
1 30799U 07004G   24075.49919926  .00000000  00000-0  00000-0 0 22564
2 30799 003.1389 178.8368 8639117 059.4827 129.2655 00.79932111    08
